     4.00           NAVIGATION DATA     M                   RINEX VERSION / TYPE
cssrlib             Unknown             20240217 081022 UTC PGM / RUN BY / DATE 
    18                                                      LEAP SECONDS        
                                                            END OF HEADER       
E13 2024 02 12 06 30 00-2.015865175053E-05-1.563194018672E-13 0.000000000000E+00
     5.500000000000E+01 1.135937500000E+02 2.263308561601E-09 3.369973376804E-01
     5.297362804413E-06 3.428744385019E-04 1.565739512444E-05 5.440616397858E+03
     1.098000000000E+05 2.235174179077E-08-2.367478796572E+00 0.000000000000E+00
     1.000182123680E+00 2.068750000000E+01-7.753416812360E-01-5.200930925363E-09
     2.992981812563E-10 2.580000000000E+02 2.301000000000E+03                   
     3.120000000000E+00 0.000000000000E+00 5.355104804039E-09 0.000000000000E+00
     1.109000000000E+05                                                         
> EPH E02 FNAV
E02 2024 02 12 06 30 00 1.027302350849E-04 3.112177182629E-12 0.000000000000E+00
     5.500000000000E+01 5.865625000000E+01 3.653723620826E-09 2.507242455455E+00
     2.762302756310E-06 5.088108591735E-04 2.594664692879E-06 5.440609151840E+03
     1.098000000000E+05 7.636845111847E-08 1.828540098012E+00 4.470348358154E-08
     9.667882067923E-01 2.894375000000E+02 7.234222168219E-01-6.097039680461E-09
     2.664396697103E-10 2.580000000000E+02 2.301000000000E+03                   
     3.120000000000E+00 0.000000000000E+00-1.396983861923E-09 0.000000000000E+00
     1.109000000000E+05                                                         
> EPH E30 INAV
E30 2024 02 12 05 50 00-9.002069709823E-04-3.083755473199E-11 0.000000000000E+00
     5.100000000000E+01 6.062500000000E+01 3.770514199908E-09 1.139952178441E+00
     2.782791852951E-06 5.959047703072E-04 3.049150109291E-06 5.440607288361E+03
     1.074000000000E+05 8.195638656616E-08 1.828596688072E+00-3.166496753693E-08
     9.642070985016E-01 2.783125000000E+02 9.978486245148E-01-6.152041971528E-09
     2.471531520637E-10 5.160000000000E+02 2.301000000000E+03                   
     3.120000000000E+00 1.300000000000E+02 1.862645149231E-09 1.629814505577E-09
     1.109090000000E+05                                                         
> EPH E15 INAV
E15 2024 02 12 06 30 00-8.534535299987E-05-2.131628207280E-12 0.000000000000E+00
     5.500000000000E+01 1.376562500000E+02 2.222949737636E-09 1.261551270686E+00
     6.273388862610E-06 3.813354996964E-04 1.488439738750E-05 5.440621171951E+03
     1.098000000000E+05 1.862645149231E-08-2.367544357246E+00 2.421438694000E-08
     1.000139100722E+00 4.090625000000E+01-9.036066767422E-01-5.201645240832E-09
     3.000124967247E-10 5.160000000000E+02 2.301000000000E+03                   
     3.120000000000E+00 0.000000000000E+00 6.286427378654E-09 6.984919309616E-09
     1.109050000000E+05                                                         
> EPH E34 INAV
E34 2024 02 12 05 40 00-9.416934335604E-05-2.145839061996E-12 0.000000000000E+00
     5.000000000000E+01 1.299375000000E+02 2.300810123691E-09 2.971787433595E+00
     5.831941962242E-06 3.772426862270E-05 1.417659223080E-05 5.440614904404E+03
     1.068000000000E+05-3.725290298462E-09-2.369294757745E+00 2.421438694000E-08
     1.000026995847E+00 5.634375000000E+01-2.204799832363E+00-5.200573767629E-09
     3.014411276615E-10 5.160000000000E+02 2.301000000000E+03                   
     3.120000000000E+00 0.000000000000E+00 5.122274160385E-09 6.053596735001E-09
     1.109050000000E+05                                                         
> EPH E13 INAV
E13 2024 02 12 06 30 00-2.015824429691E-05-1.563194018672E-13 0.000000000000E+00
     5.500000000000E+01 1.135937500000E+02 2.263308561601E-09 3.369973376804E-01
     5.297362804413E-06 3.428744385019E-04 1.565739512444E-05 5.440616397858E+03
     1.098000000000E+05 2.235174179077E-08-2.367478796572E+00 0.000000000000E+00
     1.000182123680E+00 2.068750000000E+01-7.753416812360E-01-5.200930925363E-09
     2.992981812563E-10 5.160000000000E+02 2.301000000000E+03                   
     3.120000000000E+00 0.000000000000E+00 5.355104804039E-09 5.820766091347E-09
     1.109050000000E+05                                                         
> EPH E27 INAV
E27 2024 02 12 06 30 00-2.726594684646E-04-9.563905223331E-12 0.000000000000E+00
     5.500000000000E+01 6.690625000000E+01 3.676224558080E-09 1.015952006068E+00
     3.088265657425E-06 3.177773905918E-04 3.386288881302E-06 5.440597826004E+03
     1.098000000000E+05 4.656612873077E-08 1.825438407397E+00-1.192092895508E-07
     9.663529389245E-01 2.734062500000E+02 6.256786897774E-01-6.052752121421E-09
     2.546534644818E-10 5.160000000000E+02 2.301000000000E+03                   
     3.120000000000E+00 0.000000000000E+00 2.095475792885E-09 2.095475792885E-09
     1.109050000000E+05                                                         
> EPH E02 INAV
E02 2024 02 12 06 30 00 1.027294201776E-04 3.112177182629E-12 0.000000000000E+00
     5.500000000000E+01 5.865625000000E+01 3.653723620826E-09 2.507242455455E+00
     2.762302756310E-06 5.088108591735E-04 2.594664692879E-06 5.440609151840E+03
     1.098000000000E+05 7.636845111847E-08 1.828540098012E+00 4.470348358154E-08
     9.667882067923E-01 2.894375000000E+02 7.234222168219E-01-6.097039680461E-09
     2.664396697103E-10 5.160000000000E+02 2.301000000000E+03                   
     3.120000000000E+00 0.000000000000E+00-1.396983861923E-09-2.095475792885E-09
     1.109050000000E+05                                                         
> EPH E15 FNAV
E15 2024 02 12 06 30 00-8.534599328414E-05-2.131628207280E-12 0.000000000000E+00
     5.500000000000E+01 1.376562500000E+02 2.222949737636E-09 1.261551270686E+00
     6.273388862610E-06 3.813354996964E-04 1.488439738750E-05 5.440621171951E+03
     1.098000000000E+05 1.862645149231E-08-2.367544357246E+00 2.421438694000E-08
     1.000139100722E+00 4.090625000000E+01-9.036066767422E-01-5.201645240832E-09
     3.000124967247E-10 2.580000000000E+02 2.301000000000E+03                   
     3.120000000000E+00 0.000000000000E+00 6.286427378654E-09 0.000000000000E+00
     1.109500000000E+05                                                         
> EPH E30 FNAV
E30 2024 02 12 05 50 00-9.002070291899E-04-3.083755473199E-11 0.000000000000E+00
     5.100000000000E+01 6.062500000000E+01 3.770514199908E-09 1.139952178441E+00
     2.782791852951E-06 5.959047703072E-04 3.049150109291E-06 5.440607288361E+03
     1.074000000000E+05 8.195638656616E-08 1.828596688072E+00-3.166496753693E-08
     9.642070985016E-01 2.783125000000E+02 9.978486245148E-01-6.152041971528E-09
     2.471531520637E-10 2.580000000000E+02 2.301000000000E+03                   
     3.120000000000E+00 1.600000000000E+01 1.862645149231E-09 0.000000000000E+00
     1.109500000000E+05                                                         
> EPH E27 FNAV
E27 2024 02 12 06 30 00-2.726598759182E-04-9.563905223331E-12 0.000000000000E+00
     5.500000000000E+01 6.690625000000E+01 3.676224558080E-09 1.015952006068E+00
     3.088265657425E-06 3.177773905918E-04 3.386288881302E-06 5.440597826004E+03
     1.098000000000E+05 4.656612873077E-08 1.825438407397E+00-1.192092895508E-07
     9.663529389245E-01 2.734062500000E+02 6.256786897774E-01-6.052752121421E-09
     2.546534644818E-10 2.580000000000E+02 2.301000000000E+03                   
     3.120000000000E+00 0.000000000000E+00 2.095475792885E-09 0.000000000000E+00
     1.109500000000E+05                                                         
> EPH E34 FNAV
E34 2024 02 12 05 40 00-9.417056571692E-05-2.145839061996E-12 0.000000000000E+00
     5.000000000000E+01 1.299375000000E+02 2.300810123691E-09 2.971787433595E+00
     5.831941962242E-06 3.772426862270E-05 1.417659223080E-05 5.440614904404E+03
     1.068000000000E+05-3.725290298462E-09-2.369294757745E+00 2.421438694000E-08
     1.000026995847E+00 5.634375000000E+01-2.204799832363E+00-5.200573767629E-09
     3.014411276615E-10 2.580000000000E+02 2.301000000000E+03                   
     3.120000000000E+00 0.000000000000E+00 5.122274160385E-09 0.000000000000E+00
     1.109500000000E+05                                                         
> EPH E13 FNAV
E13 2024 02 12 06 30 00-2.015865175053E-05-1.563194018672E-13 0.000000000000E+00
     5.500000000000E+01 1.135937500000E+02 2.263308561601E-09 3.369973376804E-01
     5.297362804413E-06 3.428744385019E-04 1.565739512444E-05 5.440616397858E+03
     1.098000000000E+05 2.235174179077E-08-2.367478796572E+00 0.000000000000E+00
     1.000182123680E+00 2.068750000000E+01-7.753416812360E-01-5.200930925363E-09
     2.992981812563E-10 2.580000000000E+02 2.301000000000E+03                   
     3.120000000000E+00 0.000000000000E+00 5.355104804039E-09 0.000000000000E+00
     1.109500000000E+05                                                         
> EPH E02 FNAV
E02 2024 02 12 06 30 00 1.027302350849E-04 3.112177182629E-12 0.000000000000E+00
     5.500000000000E+01 5.865625000000E+01 3.653723620826E-09 2.507242455455E+00
     2.762302756310E-06 5.088108591735E-04 2.594664692879E-06 5.440609151840E+03
     1.098000000000E+05 7.636845111847E-08 1.828540098012E+00 4.470348358154E-08
     9.667882067923E-01 2.894375000000E+02 7.234222168219E-01-6.097039680461E-09
     2.664396697103E-10 2.580000000000E+02 2.301000000000E+03                   
     3.120000000000E+00 0.000000000000E+00-1.396983861923E-09 0.000000000000E+00
     1.109500000000E+05                                                         
> EPH E15 INAV
